{"type":"FeatureCollection","crs_note":"EPSG:4326 (lon, lat) — 지도에서 EPSG:3413 으로 투영해 표출","properties":{"title":"북극항로 항해 경로 (NSR)","source":"NSRpolytopoint.txt (4열=경도, 5열=위도)","points_raw":148,"turn_index":79,"total_km":28866.7},"features":[{"type":"Feature","properties":{"leg":"outbound","name":"왕로 (한국 -> 북유럽)","color":"#ff8a3d","points":80,"length_km":14399.8},"geometry":{"type":"LineString","coordinates":[[128.263,34.3493],[128.341751,34.709075],[128.420502,35.068849],[128.499252,35.428624],[128.578003,35.788399],[128.729996,35.970402],[128.787003,36.159599],[128.867996,36.424599],[129.059998,36.755325],[129.251999,37.08605],[129.444001,37.416775],[129.636002,37.747501],[130.032334,38.136635],[130.428665,38.525768],[130.824997,38.914902],[131.126747,39.204902],[131.428497,39.494902],[131.730248,39.784902],[132.031998,40.074902],[132.280373,40.454602],[132.528748,40.834301],[132.777123,41.214001],[133.025498,41.5937],[133.273872,41.9734],[133.522247,42.3531],[133.770622,42.732799],[134.018997,43.112499],[134.388598,43.459719],[134.7582,43.806939],[135.127801,44.154158],[135.497403,44.501378],[135.867004,44.848598],[136.260147,45.019641],[136.653289,45.190684],[137.046432,45.361727],[137.439575,45.532769],[137.832718,45.703812],[138.22586,45.874855],[138.619003,46.045898],[138.987559,46.084232],[139.356115,46.122565],[139.72467,46.160899],[140.093226,46.199232],[140.461782,46.237566],[140.830338,46.275899],[141.198893,46.314233],[141.567449,46.352566],[141.936005,46.3909],[142.323648,46.477472],[142.711291,46.564043],[143.098934,46.650615],[143.486577,46.737186],[143.87422,46.823757],[144.261863,46.910329],[144.649506,46.996901],[145.037149,47.083472],[145.424792,47.170044],[145.812435,47.256615],[146.200078,47.343187],[146.587721,47.429758],[146.975364,47.51633],[147.363007,47.602901],[147.747507,47.672868],[148.132007,47.742834],[148.516506,47.812801],[148.901006,47.882768],[149.285506,47.952734],[149.670006,48.022701],[150.054506,48.092668],[150.439006,48.162634],[150.823506,48.232601],[151.208005,48.302568],[151.592505,48.372534],[151.977005,48.442501],[152.329504,48.641388],[152.682003,48.840276],[153.034502,49.039163],[153.387001,49.23805],[153.7395,49.436938],[154.091999,49.635825],[154.444498,49.834713],[154.796997,50.0336],[155.172999,50.308633],[155.549001,50.583667],[155.925003,50.8587],[155.934998,50.874001],[156.331898,51.143211],[156.728798,51.412421],[157.125698,51.681631],[157.522599,51.950841],[157.919499,52.220051],[158.316399,52.489261],[158.713299,52.758471],[159.110199,53.027681],[159.507099,53.296891],[159.903999,53.566102],[160.3009,53.835312],[160.6978,54.104522],[161.0947,54.373732],[161.4916,54.642942],[161.8885,54.912152],[162.2854,55.181362],[162.682301,55.450572],[163.079201,55.719782],[163.476101,55.988992],[163.873001,56.258202],[164.267858,56.419411],[164.662715,56.580619],[165.057572,56.741828],[165.452429,56.903036],[165.847286,57.064245],[166.242142,57.225453],[166.636999,57.386662],[167.031856,57.54787],[167.426713,57.709079],[167.82157,57.870287],[168.216427,58.031496],[168.611284,58.192705],[169.006141,58.353913],[169.400998,58.515122],[169.795855,58.67633],[170.190712,58.837539],[170.585569,58.998747],[170.980425,59.159956],[171.375282,59.321164],[171.770139,59.482373],[172.164996,59.643581],[172.559853,59.80479],[172.95471,59.965998],[173.349567,60.127207],[173.744424,60.288416],[174.139281,60.449624],[174.534138,60.610833],[174.928995,60.772041],[175.323852,60.93325],[175.718708,61.094458],[176.113565,61.255667],[176.508422,61.416875],[176.903279,61.578084],[177.298136,61.739292],[177.692993,61.900501],[178.090663,62.032567],[178.488332,62.164634],[178.886002,62.2967],[179.257335,62.420834],[179.628667,62.544968],[-180.0,62.669102],[-179.620688,62.795952],[-179.241375,62.922802],[-178.862062,63.049652],[-178.48275,63.176502],[-178.103438,63.303351],[-177.724125,63.430201],[-177.344812,63.557051],[-176.9655,63.683901],[-176.586188,63.810751],[-176.206875,63.937601],[-175.827562,64.064451],[-175.44825,64.1913],[-175.068938,64.31815],[-174.689625,64.445],[-174.310313,64.57185],[-173.931,64.6987],[-173.550375,64.926513],[-173.169751,65.154325],[-172.789126,65.382138],[-172.408501,65.609951],[-172.027876,65.837764],[-171.647251,66.065577],[-171.266627,66.293389],[-170.886002,66.521202],[-170.845993,66.710999],[-171.245281,66.809485],[-171.644568,66.90797],[-172.043856,67.006456],[-172.443143,67.104941],[-172.842431,67.203427],[-173.241718,67.301912],[-173.641006,67.400398],[-174.038443,67.486786],[-174.43588,67.573173],[-174.833317,67.659561],[-175.230754,67.745948],[-175.628192,67.832336],[-176.025629,67.918724],[-176.423066,68.005111],[-176.820503,68.091499],[-177.21794,68.177887],[-177.615377,68.264274],[-178.012814,68.350662],[-178.410252,68.43705],[-178.807689,68.523437],[-179.205126,68.609825],[-179.602563,68.696212],[-180.0,68.7826],[179.64925,68.858],[179.2985,68.933399],[178.94775,69.008798],[178.597,69.084198],[178.197,69.171619],[177.797,69.259039],[177.397,69.34646],[176.997,69.43388],[176.597,69.521301],[176.215999,69.546686],[175.834998,69.572071],[175.453997,69.597456],[175.072996,69.622842],[174.691995,69.648227],[174.310994,69.673612],[173.929993,69.698997],[173.561449,69.709225],[173.192905,69.719452],[172.82436,69.72968],[172.455816,69.739908],[172.087272,69.750135],[171.718728,69.760363],[171.350184,69.77059],[170.98164,69.780818],[170.613095,69.791046],[170.244551,69.801273],[169.876007,69.811501],[169.476506,69.844921],[169.077005,69.878341],[168.677504,69.91176],[168.278003,69.94518],[167.878502,69.9786],[167.479001,70.01202],[167.0795,70.04544],[166.679999,70.078859],[166.280498,70.112279],[165.880997,70.145699],[165.508997,70.184159],[165.136997,70.222618],[164.764996,70.261078],[164.392996,70.299538],[164.020996,70.337998],[163.648996,70.376457],[163.276996,70.414917],[162.904995,70.453377],[162.532995,70.491836],[162.160995,70.530296],[161.783662,70.598088],[161.406328,70.665881],[161.028995,70.733673],[160.651662,70.801465],[160.274329,70.869257],[159.896996,70.93705],[159.519662,71.004842],[159.142329,71.072634],[158.764996,71.140426],[158.387663,71.208219],[158.010329,71.276011],[157.632996,71.343803],[157.237067,71.399738],[156.841139,71.455674],[156.44521,71.511609],[156.049282,71.567545],[155.653353,71.62348],[155.257425,71.679416],[154.861496,71.735352],[154.465567,71.791287],[154.069639,71.847223],[153.67371,71.903158],[153.277782,71.959094],[152.881853,72.015029],[152.485925,72.070965],[152.089996,72.1269],[151.706052,72.187939],[151.322108,72.248978],[150.938163,72.310017],[150.554219,72.371056],[150.170275,72.432095],[149.786331,72.493134],[149.402387,72.554173],[149.018443,72.615212],[148.634499,72.676251],[148.250554,72.737289],[147.86661,72.798328],[147.482666,72.859367],[147.098722,72.920406],[146.714778,72.981445],[146.330834,73.042484],[145.946889,73.103523],[145.562945,73.164562],[145.179001,73.225601],[144.787667,73.29735],[144.396332,73.3691],[144.004998,73.440849],[143.613663,73.512598],[143.222329,73.584348],[142.830994,73.656097],[142.479423,73.663098],[142.127851,73.670098],[141.77628,73.677099],[141.424709,73.684099],[141.073138,73.6911],[140.721566,73.6981],[140.369995,73.705101],[139.987747,73.67485],[139.605499,73.6446],[139.223251,73.61435],[138.841003,73.584099],[138.447169,73.576566],[138.053334,73.569033],[137.6595,73.5615],[137.265666,73.553968],[136.871831,73.546435],[136.477997,73.538902],[136.097832,73.581835],[135.717667,73.624768],[135.337501,73.667701],[134.957336,73.710635],[134.577171,73.753568],[134.197006,73.796501],[133.854605,73.847301],[133.512204,73.8981],[133.169803,73.9489],[132.827402,73.999699],[132.485001,74.050499],[132.088058,74.08393],[131.691115,74.117362],[131.294173,74.150793],[130.89723,74.184224],[130.500287,74.217656],[130.103344,74.251087],[129.706401,74.284518],[129.309459,74.31795],[128.912516,74.351381],[128.515573,74.384812],[128.11863,74.418244],[127.721687,74.451675],[127.324745,74.485106],[126.927802,74.518538],[126.530859,74.551969],[126.133916,74.5854],[125.736973,74.618832],[125.340031,74.652263],[124.943088,74.685695],[124.546145,74.719126],[124.149202,74.752557],[123.752259,74.785989],[123.355317,74.81942],[122.958374,74.852851],[122.561431,74.886283],[122.164488,74.919714],[121.767545,74.953145],[121.370603,74.986577],[120.97366,75.020008],[120.576717,75.053439],[120.179774,75.086871],[119.782831,75.120302],[119.385889,75.153733],[118.988946,75.187165],[118.592003,75.220596],[118.193655,75.279322],[117.795307,75.338048],[117.396959,75.396774],[116.998611,75.455501],[116.600263,75.514227],[116.201915,75.572953],[115.803567,75.631679],[115.405219,75.690405],[115.006871,75.749131],[114.608523,75.807857],[114.210175,75.866583],[113.811828,75.92531],[113.41348,75.984036],[113.015132,76.042762],[112.616784,76.101488],[112.218436,76.160214],[111.820088,76.21894],[111.42174,76.277666],[111.023392,76.336392],[110.625044,76.395119],[110.226696,76.453845],[109.828348,76.512571],[109.43,76.571297],[109.095166,76.603614],[108.760333,76.635931],[108.425499,76.668248],[108.090665,76.700564],[107.755832,76.732881],[107.420998,76.765198],[107.039261,76.744688],[106.657524,76.724178],[106.275788,76.703667],[105.894051,76.683157],[105.512314,76.662647],[105.130577,76.642137],[104.74884,76.621627],[104.367104,76.601116],[103.985367,76.580606],[103.60363,76.560096],[103.221893,76.539586],[102.840157,76.519075],[102.45842,76.498565],[102.076683,76.478055],[101.694946,76.457545],[101.313209,76.437035],[100.931473,76.416524],[100.549736,76.396014],[100.167999,76.375504],[99.791026,76.389149],[99.414054,76.402794],[99.037081,76.416438],[98.660109,76.430083],[98.283136,76.443728],[97.906164,76.457373],[97.529191,76.471018],[97.152219,76.484663],[96.775246,76.498307],[96.398274,76.511952],[96.021301,76.525597],[95.627393,76.469213],[95.233485,76.412829],[94.839577,76.356445],[94.445669,76.30006],[94.051761,76.243676],[93.657853,76.187292],[93.263945,76.130908],[92.870037,76.074524],[92.476129,76.01814],[92.082221,75.961755],[91.688313,75.905371],[91.294405,75.848987],[90.900497,75.792603],[90.502264,75.734436],[90.10403,75.676269],[89.705797,75.618101],[89.307563,75.559934],[88.90933,75.501767],[88.511097,75.4436],[88.112863,75.385433],[87.71463,75.327266],[87.316396,75.269098],[86.918163,75.210931],[86.519929,75.152764],[86.121696,75.094597],[85.747474,75.069075],[85.373252,75.043553],[84.999031,75.018031],[84.624809,74.992509],[84.250587,74.966987],[83.876365,74.941465],[83.502144,74.915943],[83.127922,74.890421],[82.7537,74.864899],[82.37115,74.814939],[81.9886,74.76498],[81.60605,74.71502],[81.2235,74.665061],[80.84095,74.615101],[80.4584,74.565141],[80.07585,74.515182],[79.6933,74.465222],[79.31075,74.415263],[78.9282,74.365303],[78.577525,74.339015],[78.226851,74.312727],[77.876176,74.286439],[77.525502,74.260151],[77.174827,74.233863],[76.824152,74.207575],[76.473478,74.181287],[76.122803,74.154999],[75.736903,74.092663],[75.351002,74.030326],[74.965102,73.96799],[74.579202,73.905654],[74.193301,73.843317],[73.807401,73.780981],[73.4215,73.718644],[73.0356,73.656308],[72.6497,73.593972],[72.263799,73.531635],[71.877899,73.469299],[71.621201,73.422699],[71.23844,73.350291],[70.855678,73.277884],[70.472917,73.205476],[70.090155,73.133069],[69.707394,73.060661],[69.324632,72.988253],[68.941871,72.915846],[68.559109,72.843438],[68.176348,72.77103],[67.793586,72.698623],[67.410825,72.626215],[67.028063,72.553808],[66.645302,72.4814],[66.270208,72.352631],[65.895114,72.223862],[65.52002,72.095093],[65.144926,71.966324],[64.769832,71.837555],[64.394738,71.708786],[64.019644,71.580017],[63.644551,71.451248],[63.269457,71.32248],[62.894363,71.193711],[62.519269,71.064942],[62.144175,70.936173],[61.769081,70.807404],[61.393987,70.678635],[61.018893,70.549866],[60.643799,70.421097],[60.263475,70.147799],[59.88315,69.874501],[59.502826,69.601202],[59.122501,69.327904],[58.747526,69.312054],[58.372551,69.296204],[57.997576,69.280354],[57.622601,69.264504],[57.247625,69.248653],[56.87265,69.232803],[56.497675,69.216953],[56.1227,69.201103],[55.75894,69.192602],[55.395181,69.184102],[55.031421,69.175601],[54.667662,69.167101],[54.303902,69.1586],[53.914527,69.145837],[53.525151,69.133075],[53.135776,69.120312],[52.746401,69.10755],[52.357026,69.094787],[51.96765,69.082025],[51.578275,69.069262],[51.1889,69.0565],[50.799525,69.043737],[50.410149,69.030974],[50.020774,69.018212],[49.631399,69.005449],[49.242024,68.992687],[48.852648,68.979924],[48.463273,68.967162],[48.073898,68.954399],[47.682271,68.967579],[47.290643,68.980759],[46.899015,68.993939],[46.507388,69.007119],[46.11576,69.020299],[45.724133,69.033479],[45.332505,69.046659],[44.940878,69.059839],[44.54925,69.073019],[44.157623,69.086199],[43.765996,69.099379],[43.374368,69.112559],[42.982741,69.125739],[42.591113,69.138919],[42.199486,69.152099],[41.807858,69.165279],[41.41623,69.178459],[41.024603,69.191639],[40.632975,69.204819],[40.241348,69.217998],[39.84972,69.231178],[39.458093,69.244358],[39.066465,69.257538],[38.674838,69.270718],[38.28321,69.283898],[37.891583,69.297078],[37.499955,69.310258],[37.108328,69.323438],[36.716701,69.336618],[36.325073,69.349798],[35.933446,69.362978],[35.541818,69.376158],[35.150191,69.389338],[34.758563,69.402518],[34.366936,69.415698],[33.975308,69.428878],[33.583681,69.442058],[33.192053,69.455238],[32.800425,69.468418],[32.408798,69.481598],[32.016218,69.579338],[31.623639,69.677078],[31.231059,69.774819],[30.83848,69.872559],[30.4459,69.970299],[30.086686,70.072499],[29.727471,70.174699],[29.368257,70.276899],[29.009043,70.379099],[28.649829,70.481299],[28.290614,70.583499],[27.9314,70.685699],[27.55215,70.708099],[27.1729,70.730499],[26.79365,70.752899],[26.4144,70.775299],[26.03515,70.797699],[25.6559,70.820099],[25.27665,70.842499],[24.8974,70.864899],[24.535778,70.836377],[24.174155,70.807855],[23.812533,70.779333],[23.450911,70.750811],[23.089288,70.722288],[22.727666,70.693766],[22.366044,70.665244],[22.004421,70.636722],[21.642799,70.6082],[21.262019,70.54148],[20.881239,70.47476],[20.500459,70.408041],[20.119679,70.341321],[19.738899,70.274601],[19.358119,70.207881],[18.977339,70.141161],[18.596559,70.074442],[18.215779,70.007722],[17.834999,69.941002],[17.452607,69.779818],[17.070216,69.618635],[16.687824,69.457451],[16.305433,69.296267],[15.923041,69.135084],[15.54065,68.9739],[15.158258,68.812716],[14.775866,68.651533],[14.393475,68.490349],[14.011083,68.329165],[13.628692,68.167982],[13.2463,68.006798],[12.852479,67.733016],[12.458658,67.459235],[12.064837,67.185453],[11.671016,66.911672],[11.277195,66.63789],[10.883375,66.364109],[10.489554,66.090327],[10.095733,65.816546],[9.701912,65.542764],[9.308091,65.268983],[8.91427,64.995201],[8.557253,64.802968],[8.200237,64.610734],[7.84322,64.418501],[7.486203,64.226268],[7.129187,64.034034],[6.77217,63.841801],[6.64003,63.459401],[6.50789,63.077],[6.517632,62.69542],[6.527374,62.313841],[6.537116,61.932261],[6.546858,61.550682],[6.5566,61.169102],[6.55897,61.084702],[6.503921,60.718735],[6.448872,60.352768],[6.393823,59.986801],[6.338774,59.620834],[6.283726,59.254868],[6.228677,58.888901],[6.173628,58.522934],[6.118579,58.156967],[6.06353,57.791],[5.994596,57.40846],[5.925662,57.02592],[5.856728,56.64338],[5.787794,56.26084],[5.71886,55.878299],[5.649926,55.495759],[5.580992,55.113219],[5.512058,54.730679],[5.443124,54.348139],[5.37419,53.965599],[5.39956,53.6866],[5.42813,53.367298],[5.44968,53.123001],[5.46657,52.929199],[5.48524,52.7127],[5.514645,52.363649],[5.54405,52.014599],[5.161653,51.996799],[4.779256,51.978999],[4.396859,51.961199],[4.014461,51.943399],[3.632064,51.925599],[3.249667,51.907799],[2.86727,51.889999]]}},{"type":"Feature","properties":{"leg":"inbound","name":"복로 (북유럽 -> 한국)","color":"#4dd7ff","points":69,"length_km":14466.9},"geometry":{"type":"LineString","coordinates":[[2.86727,51.889999],[2.80966,52.234449],[2.75205,52.578899],[2.69444,52.923349],[2.63683,53.267799],[2.57922,53.612249],[2.52161,53.956699],[2.55538,54.350509],[2.58915,54.744319],[2.62292,55.138129],[2.65669,55.531939],[2.69046,55.925748],[2.72423,56.319558],[2.758,56.713368],[2.79177,57.107178],[2.82554,57.500988],[2.85931,57.894798],[2.871457,58.254054],[2.883603,58.61331],[2.89575,58.972566],[2.907897,59.331822],[2.920043,59.691077],[2.93219,60.050333],[2.944337,60.409589],[2.956483,60.768845],[2.96863,61.128101],[2.911932,61.462751],[2.855233,61.797401],[2.798535,62.132052],[2.741837,62.466702],[2.685138,62.801352],[2.62844,63.136002],[2.694828,63.477452],[2.761215,63.818901],[2.827603,64.160351],[2.89399,64.501801],[3.292465,64.740533],[3.69094,64.979266],[4.089415,65.217998],[4.48789,65.456731],[4.886365,65.695464],[5.28484,65.934196],[5.672161,66.238846],[6.059482,66.543496],[6.446803,66.848147],[6.834124,67.152797],[7.221445,67.457447],[7.608766,67.762097],[7.996087,68.066747],[8.383408,68.371398],[8.770729,68.676048],[9.15805,68.980698],[9.553715,69.16159],[9.949381,69.342483],[10.345046,69.523375],[10.740712,69.704267],[11.136377,69.88516],[11.532042,70.066052],[11.927708,70.246944],[12.323373,70.427836],[12.719038,70.608729],[13.114704,70.789621],[13.510369,70.970513],[13.906035,71.151406],[14.3017,71.332298],[14.678114,71.400805],[15.054529,71.469312],[15.430943,71.537819],[15.807357,71.606326],[16.183772,71.674833],[16.560186,71.74334],[16.9366,71.811847],[17.313015,71.880355],[17.689429,71.948862],[18.065844,72.017369],[18.442258,72.085876],[18.818672,72.154383],[19.195087,72.22289],[19.571501,72.291397],[19.967478,72.322366],[20.363455,72.353336],[20.759432,72.384305],[21.155408,72.415275],[21.551385,72.446244],[21.947362,72.477214],[22.343339,72.508183],[22.739316,72.539153],[23.135293,72.570122],[23.531269,72.601092],[23.927246,72.632061],[24.323223,72.663031],[24.7192,72.694],[25.107153,72.670534],[25.495107,72.647067],[25.88306,72.623601],[26.271013,72.600134],[26.658967,72.576668],[27.04692,72.553201],[27.434873,72.529735],[27.822827,72.506268],[28.21078,72.482802],[28.598733,72.459335],[28.986687,72.435869],[29.37464,72.412402],[29.762593,72.388936],[30.150547,72.365469],[30.5385,72.342003],[30.926611,72.227925],[31.314723,72.113847],[31.702834,71.999769],[32.090945,71.885691],[32.479057,71.771612],[32.867168,71.657534],[33.255279,71.543456],[33.643391,71.429378],[34.031502,71.3153],[34.1278,71.292801],[34.521533,71.27847],[34.915267,71.26414],[35.309,71.249809],[35.702733,71.235479],[36.096467,71.221148],[36.4902,71.206818],[36.883933,71.192487],[37.277667,71.178157],[37.6714,71.163826],[38.065133,71.149495],[38.458867,71.135165],[38.8526,71.120834],[39.246333,71.106504],[39.640067,71.092173],[40.0338,71.077843],[40.427533,71.063512],[40.821267,71.049182],[41.215,71.034851],[41.608733,71.02052],[42.002467,71.00619],[42.3962,70.991859],[42.789933,70.977529],[43.183667,70.963198],[43.5774,70.948868],[43.971133,70.934537],[44.364867,70.920207],[44.7586,70.905876],[45.152333,70.891545],[45.546067,70.877215],[45.9398,70.862884],[46.333533,70.848554],[46.727267,70.834223],[47.121,70.819893],[47.514733,70.805562],[47.908467,70.791232],[48.3022,70.776901],[48.6801,70.788367],[49.058,70.799834],[49.4359,70.8113],[49.8138,70.822767],[50.1917,70.834233],[50.5696,70.8457],[50.9475,70.857166],[51.325399,70.868633],[51.703299,70.880099],[52.081199,70.891566],[52.459099,70.903032],[52.836999,70.914499],[53.214899,70.925965],[53.592799,70.937432],[53.970699,70.948898],[54.340199,70.957899],[54.709699,70.966899],[55.0792,70.9759],[55.4487,70.984901],[55.668501,71.166202],[55.888302,71.347504],[56.275255,71.493833],[56.662208,71.640162],[57.04916,71.786491],[57.436113,71.93282],[57.823066,72.079149],[58.210019,72.225478],[58.596971,72.371807],[58.983924,72.518136],[59.370877,72.664466],[59.75783,72.810795],[60.144782,72.957124],[60.531735,73.103453],[60.918688,73.249782],[61.305641,73.396111],[61.692593,73.54244],[62.079546,73.688769],[62.466499,73.835098],[62.85957,73.914077],[63.252642,73.993056],[63.645713,74.072035],[64.038784,74.151014],[64.431856,74.229993],[64.824927,74.308972],[65.217998,74.387951],[65.61107,74.46693],[66.004141,74.545909],[66.397213,74.624888],[66.790284,74.703867],[67.183355,74.782846],[67.576427,74.861825],[67.969498,74.940804],[68.062897,74.956902],[68.0802,74.960197],[68.479477,75.026789],[68.878754,75.093382],[69.27803,75.159974],[69.677307,75.226566],[70.076584,75.293159],[70.475861,75.359751],[70.875137,75.426343],[71.274414,75.492935],[71.673691,75.559528],[72.072968,75.62612],[72.472244,75.692712],[72.871521,75.759305],[73.270798,75.825897],[73.634848,75.855047],[73.998898,75.884197],[74.362948,75.913347],[74.726998,75.942497],[75.091047,75.971647],[75.455097,76.000797],[75.819147,76.029947],[76.183197,76.059097],[76.566177,76.109237],[76.949158,76.159378],[77.332138,76.209518],[77.715118,76.259659],[78.098098,76.309799],[78.481079,76.359939],[78.864059,76.41008],[79.247039,76.46022],[79.63002,76.510361],[80.013,76.560501],[80.383988,76.587776],[80.754976,76.615051],[81.125964,76.642326],[81.496952,76.669601],[81.86794,76.696877],[82.238928,76.724152],[82.609916,76.751427],[82.980904,76.778702],[83.347953,76.833862],[83.715003,76.889021],[84.082052,76.944181],[84.449102,76.999341],[84.816151,77.0545],[85.1832,77.10966],[85.55025,77.16482],[85.917299,77.21998],[86.284349,77.275139],[86.651398,77.330299],[87.050093,77.386689],[87.448788,77.443078],[87.847483,77.499468],[88.246178,77.555858],[88.644872,77.612247],[89.043567,77.668637],[89.442262,77.725027],[89.840957,77.781416],[90.239652,77.837806],[90.638347,77.894196],[91.037042,77.950586],[91.435737,78.006975],[91.834432,78.063365],[92.233127,78.119755],[92.631821,78.176144],[93.030516,78.232534],[93.429211,78.288924],[93.827906,78.345313],[94.226601,78.401703],[94.617229,78.391088],[95.007857,78.380474],[95.398486,78.369859],[95.789114,78.359244],[96.179742,78.34863],[96.57037,78.338015],[96.960999,78.3274],[97.351627,78.316786],[97.742255,78.306171],[98.132883,78.295557],[98.523511,78.284942],[98.91414,78.274327],[99.304768,78.263713],[99.695396,78.253098],[100.089165,78.271888],[100.482933,78.290677],[100.876702,78.309467],[101.270471,78.328256],[101.66424,78.347046],[102.058008,78.365835],[102.451777,78.384625],[102.845546,78.403415],[103.239315,78.422204],[103.633083,78.440994],[104.026852,78.459783],[104.420621,78.478573],[104.81439,78.497363],[105.208158,78.516152],[105.601927,78.534942],[105.995696,78.553731],[106.389465,78.572521],[106.783233,78.59131],[107.177002,78.6101],[107.441502,78.616299],[107.706001,78.622498],[108.105089,78.614159],[108.504176,78.605821],[108.903264,78.597482],[109.302351,78.589144],[109.701439,78.580805],[110.100527,78.572467],[110.499614,78.564128],[110.898702,78.55579],[111.29779,78.547451],[111.696877,78.539113],[112.095965,78.530774],[112.495052,78.522436],[112.89414,78.514097],[113.293228,78.505759],[113.692315,78.49742],[114.091403,78.489082],[114.49049,78.480743],[114.889578,78.472405],[115.288666,78.464066],[115.687753,78.455727],[116.086841,78.447389],[116.485929,78.43905],[116.885016,78.430712],[117.284104,78.422373],[117.683191,78.414035],[118.082279,78.405696],[118.481367,78.397358],[118.880454,78.389019],[119.279542,78.380681],[119.678629,78.372342],[120.077717,78.364004],[120.476805,78.355665],[120.875892,78.347327],[121.27498,78.338988],[121.674067,78.33065],[122.073155,78.322311],[122.472243,78.313973],[122.87133,78.305634],[123.270418,78.297295],[123.669506,78.288957],[124.068593,78.280618],[124.467681,78.27228],[124.866768,78.263941],[125.265856,78.255603],[125.664944,78.247264],[126.064031,78.238926],[126.463119,78.230587],[126.862206,78.222249],[127.261294,78.21391],[127.660382,78.205572],[128.059469,78.197233],[128.458557,78.188895],[128.857645,78.180556],[129.256732,78.172218],[129.65582,78.163879],[130.054907,78.155541],[130.453995,78.147202],[130.840995,78.138458],[131.227995,78.129714],[131.614995,78.120969],[132.001995,78.112225],[132.388996,78.103481],[132.775996,78.094737],[133.162996,78.085992],[133.549996,78.077248],[133.936996,78.068504],[134.323996,78.05976],[134.710996,78.051015],[135.097996,78.042271],[135.484997,78.033527],[135.871997,78.024783],[136.258997,78.016038],[136.645997,78.007294],[137.032997,77.99855],[137.419997,77.989806],[137.806997,77.981061],[138.193997,77.972317],[138.580998,77.963573],[138.967998,77.954829],[139.354998,77.946084],[139.741998,77.93734],[140.128998,77.928596],[140.516368,77.939411],[140.903739,77.950226],[141.291109,77.96104],[141.678479,77.971855],[142.06585,77.98267],[142.45322,77.993485],[142.84059,78.0043],[143.227961,78.015115],[143.615331,78.025929],[144.002701,78.036744],[144.390072,78.047559],[144.777442,78.058374],[145.164812,78.069189],[145.552183,78.080003],[145.939553,78.090818],[146.326923,78.101633],[146.714294,78.112448],[147.101664,78.123263],[147.489034,78.134077],[147.876405,78.144892],[148.263775,78.155707],[148.651145,78.166522],[149.038516,78.177337],[149.425886,78.188152],[149.813256,78.198966],[150.200627,78.209781],[150.587997,78.220596],[150.970647,78.171316],[151.353297,78.122037],[151.735947,78.072757],[152.118597,78.023477],[152.501247,77.974197],[152.883897,77.924917],[153.266547,77.875638],[153.649197,77.826358],[154.031847,77.777078],[154.414497,77.727799],[154.797147,77.678519],[155.179797,77.629239],[155.562447,77.579959],[155.945097,77.530679],[156.327747,77.4814],[156.710397,77.43212],[157.093047,77.38284],[157.475697,77.333561],[157.858347,77.284281],[158.240997,77.235001],[158.619382,77.138193],[158.997767,77.041386],[159.376152,76.944578],[159.754538,76.84777],[160.132923,76.750963],[160.511308,76.654155],[160.889693,76.557347],[161.268078,76.460539],[161.646463,76.363732],[162.024849,76.266924],[162.403234,76.170116],[162.781619,76.073309],[163.160004,75.976501],[163.532602,75.599801],[163.9052,75.223101],[164.277799,74.846402],[164.650397,74.469702],[165.022995,74.093002],[165.408416,73.993812],[165.793837,73.894623],[166.179258,73.795433],[166.564679,73.696243],[166.9501,73.597053],[167.335521,73.497864],[167.720942,73.398674],[168.106363,73.299484],[168.491784,73.200294],[168.877204,73.101105],[169.262625,73.001915],[169.648046,72.902725],[170.033467,72.803535],[170.418888,72.704346],[170.804309,72.605156],[171.18973,72.505966],[171.575151,72.406776],[171.960572,72.307587],[172.345993,72.208397],[172.733438,72.148686],[173.120883,72.088975],[173.508329,72.029264],[173.895774,71.969553],[174.283219,71.909842],[174.670664,71.850131],[175.05811,71.79042],[175.445555,71.730709],[175.833,71.670997],[176.220445,71.611286],[176.60789,71.551575],[176.995336,71.491864],[177.382781,71.432153],[177.770226,71.372442],[178.157671,71.312731],[178.545117,71.25302],[178.932562,71.193309],[179.320007,71.133598],[179.546005,71.017601],[179.774506,70.965751],[-179.996994,70.913902],[-179.648995,70.834951],[-179.300995,70.756],[-178.952995,70.67705],[-178.604996,70.598099],[-178.223397,70.512384],[-177.841797,70.426669],[-177.460198,70.340954],[-177.078598,70.255239],[-176.696999,70.169523],[-176.315399,70.083808],[-175.9338,69.998093],[-175.5522,69.912378],[-175.170601,69.826663],[-174.789001,69.740948],[-174.407402,69.655233],[-174.025803,69.569518],[-173.644203,69.483803],[-173.262604,69.398088],[-172.881004,69.312373],[-172.499405,69.226657],[-172.117805,69.140942],[-171.736206,69.055227],[-171.354606,68.969512],[-170.973007,68.883797],[-170.58816,68.779597],[-170.203314,68.675397],[-169.818467,68.571197],[-169.433621,68.466997],[-169.048774,68.362797],[-168.663927,68.258597],[-168.279081,68.154398],[-167.894234,68.050198],[-167.509387,67.945998],[-167.124541,67.841798],[-166.739694,67.737598],[-166.354848,67.633398],[-165.970001,67.529198],[-166.112402,67.186519],[-166.254803,66.84384],[-166.397205,66.501162],[-166.539606,66.158483],[-166.682007,65.815804],[-167.050256,65.614512],[-167.418506,65.41322],[-167.786755,65.211928],[-168.155004,65.010636],[-168.523253,64.809344],[-168.891503,64.608052],[-169.259752,64.406759],[-169.628001,64.205467],[-169.99625,64.004175],[-170.364499,63.802883],[-170.732749,63.601591],[-171.100998,63.400299],[-171.489398,63.276484],[-171.877799,63.152669],[-172.266199,63.028854],[-172.654599,62.905039],[-173.042999,62.781224],[-173.431399,62.657409],[-173.8198,62.533594],[-174.2082,62.409779],[-174.5966,62.285964],[-174.985001,62.162149],[-175.373401,62.038335],[-175.761801,61.91452],[-176.150201,61.790705],[-176.538601,61.66689],[-176.927002,61.543075],[-177.315402,61.41926],[-177.703802,61.295445],[-178.092202,61.17163],[-178.480603,61.047815],[-178.869003,60.924],[-179.203003,60.8144],[-179.600502,60.68565],[-179.998001,60.5569],[179.636993,60.4394],[179.245879,60.28518],[178.854765,60.13096],[178.463651,59.97674],[178.072536,59.82252],[177.681422,59.6683],[177.290308,59.51408],[176.899194,59.35986],[176.50808,59.20564],[176.116966,59.051419],[175.725852,58.897199],[175.334737,58.742979],[174.943623,58.588759],[174.552509,58.434539],[174.161395,58.280319],[173.770281,58.126099],[173.379167,57.971879],[172.988053,57.817659],[172.596938,57.663439],[172.205824,57.509219],[171.81471,57.354999],[171.423596,57.200779],[171.032482,57.046559],[170.641368,56.892339],[170.250254,56.738119],[169.859139,56.583899],[169.468025,56.429679],[169.076911,56.275458],[168.685797,56.121238],[168.294683,55.967018],[167.903569,55.812798],[167.512455,55.658578],[167.12134,55.504358],[166.730226,55.350138],[166.339112,55.195918],[165.947998,55.041698],[165.558348,54.790573],[165.168698,54.539448],[164.779048,54.288323],[164.389398,54.037198],[163.999748,53.786073],[163.610098,53.534948],[163.220448,53.283823],[162.830798,53.032698],[162.441148,52.781573],[162.051498,52.530448],[161.661849,52.279324],[161.272199,52.028199],[160.882549,51.777074],[160.492899,51.525949],[160.103249,51.274824],[159.713599,51.023699],[159.323949,50.772574],[158.934299,50.521449],[158.544649,50.270324],[158.154999,50.019199],[158.102005,49.946602],[157.708504,49.671851],[157.315002,49.397101],[156.921501,49.12235],[156.528,48.847599],[156.146778,48.637633],[155.765556,48.427666],[155.384333,48.2177],[155.003111,48.007733],[154.621889,47.797767],[154.240667,47.5878],[153.859444,47.377834],[153.478222,47.167867],[153.097,46.957901],[152.705846,46.889078],[152.314691,46.820255],[151.923537,46.751432],[151.532382,46.682609],[151.141228,46.613786],[150.750074,46.544963],[150.358919,46.47614],[149.967765,46.407317],[149.576611,46.338494],[149.185456,46.269671],[148.794302,46.200848],[148.403147,46.132025],[148.011993,46.063202],[147.616279,45.975459],[147.220565,45.887716],[146.824852,45.799973],[146.429138,45.71223],[146.033424,45.624487],[145.63771,45.536744],[145.241997,45.449001],[144.846283,45.361259],[144.450569,45.273516],[144.054855,45.185773],[143.659141,45.09803],[143.263428,45.010287],[142.867714,44.922544],[142.472,44.834801],[142.087376,44.796901],[141.702751,44.759001],[141.318127,44.721101],[140.933502,44.683201],[140.548878,44.645301],[140.164253,44.607401],[139.779629,44.569501],[139.395004,44.531601],[139.05267,44.385701],[138.710337,44.239801],[138.368003,44.093901],[138.02567,43.948],[137.683336,43.8021],[137.341003,43.6562],[136.956001,43.309175],[136.570999,42.96215],[136.185997,42.615126],[135.800995,42.268101],[135.537495,41.889338],[135.273995,41.510576],[135.010494,41.131813],[134.746994,40.75305],[134.483494,40.374287],[134.219993,39.995525],[133.956493,39.616762],[133.692993,39.237999],[133.345493,38.91785],[132.997994,38.5977],[132.650494,38.27755],[132.302994,37.957401],[131.942998,37.618667],[131.583003,37.279934],[131.223007,36.9412],[131.011337,36.5999],[130.799667,36.258601],[130.587997,35.917301],[130.485001,35.61325],[130.382004,35.3092],[130.350998,35.209202],[130.277,34.971151],[130.203003,34.733101],[129.833333,34.562767],[129.463664,34.392433],[129.093994,34.222099],[128.816996,34.264499],[128.539998,34.3069],[128.263,34.3493]]}},{"type":"Feature","properties":{"kind":"marker","leg":"start","name":"출발 (부산 부근)"},"geometry":{"type":"Point","coordinates":[128.263,34.3493]}},{"type":"Feature","properties":{"kind":"marker","leg":"turn","name":"반환점 (북유럽)"},"geometry":{"type":"Point","coordinates":[2.86727,51.889999]}}]}